start=new Date('2022-01-11T00:00:00.000Z').valueOf();
sats=[{"OBJECT_ID":"2021-005AV","INCLINATION":"53.0554","MEAN_MOTION_DOT":"0.00001486","PERIAPSIS":"546.169","PERIOD":"95.592","TLE_LINE2":"2 47392  53.0554  10.5626 0001471  69.7776 290.3371 15.06408429 54513","MEAN_ANOMALY":"290.3371","GP_ID":"193624855","SITE":"AFETR","OBJECT_NAME":"STARLINK-2113","BSTAR":"0.00011859000000","TLE_LINE1":"1 47392U 21005AV  22010.71231179  .00001486  00000-0  11859-3 0  9995","RCS_SIZE":"LARGE","FILE":"3269118","MEAN_MOTION_DDOT":"0.0000000000000","OBJECT_TYPE":"PAYLOAD","REF_FRAME":"TEME","MEAN_MOTION":"15.06408429","CENTER_NAME":"EARTH","RA_OF_ASC_NODE":"10.5626","ARG_OF_PERICENTER":"69.7776","CLASSIFICATION_TYPE":"U","EPOCH":"2022-01-10T17:05:43.738656","COUNTRY_CODE":"US","APOAPSIS":"548.206","ELEMENT_SET_NO":"999","LAUNCH_DATE":"2021-01-20","NORAD_CAT_ID":"47392","MEAN_ELEMENT_THEORY":"SGP4","TIME_SYSTEM":"UTC","DECAY_DATE":null,"SEMIMAJOR_AXIS":"6925.323","ECCENTRICITY":"0.00014710","REV_AT_EPOCH":"5451","EPHEMERIS_TYPE":"0"},{"OBJECT_ID":"2021-005AW","PERIAPSIS":"545.889","MEAN_MOTION_DOT":"0.00000599","INCLINATION":"53.0553","TLE_LINE2":"2 47393  53.0553 345.9033 0001901  69.7786 290.3407 15.06402764 54852","PERIOD":"95.592","MEAN_ANOMALY":"290.3407","GP_ID":"193624605","SITE":"AFETR","BSTAR":"0.00005908800000","TLE_LINE1":"1 47393U 21005AW  22010.63811186  .00000599  00000-0  59088-4 0  9990","OBJECT_NAME":"STARLINK-2114","RCS_SIZE":"LARGE","MEAN_MOTION_DDOT":"0.0000000000000","FILE":"3269118","REF_FRAME":"TEME","OBJECT_TYPE":"PAYLOAD","RA_OF_ASC_NODE":"345.9033","MEAN_MOTION":"15.06402764","CENTER_NAME":"EARTH","ARG_OF_PERICENTER":"69.7786","CLASSIFICATION_TYPE":"U","EPOCH":"2022-01-10T15:18:52.864704","LAUNCH_DATE":"2021-01-20","APOAPSIS":"548.522","COUNTRY_CODE":"US","ELEMENT_SET_NO":"999","NORAD_CAT_ID":"47393","MEAN_ELEMENT_THEORY":"SGP4","SEMIMAJOR_AXIS":"6925.340","DECAY_DATE":null,"ECCENTRICITY":"0.00019010","REV_AT_EPOCH":"5485","EPHEMERIS_TYPE":"0","TIME_SYSTEM":"UTC"},{"NORAD_CAT_ID":"47394","MEAN_ELEMENT_THEORY":"SGP4","TIME_SYSTEM":"UTC","EPHEMERIS_TYPE":"0","DECAY_DATE":null,"ECCENTRICITY":"0.00016150","SEMIMAJOR_AXIS":"6925.318","REV_AT_EPOCH":"5460","EPOCH":"2022-01-10T18:53:50.833824","ELEMENT_SET_NO":"999","APOAPSIS":"548.301","COUNTRY_CODE":"US","LAUNCH_DATE":"2021-01-20","CLASSIFICATION_TYPE":"U","CENTER_NAME":"EARTH","MEAN_MOTION":"15.06409986","RA_OF_ASC_NODE":"5.2334","ARG_OF_PERICENTER":"66.4575","FILE":"3269118","MEAN_MOTION_DDOT":"0.0000000000000","OBJECT_TYPE":"PAYLOAD","REF_FRAME":"TEME","OBJECT_NAME":"STARLINK-2115","TLE_LINE1":"1 47394U 21005AX  22010.78739391  .00002154  00000-0  16345-3 0  9991","BSTAR":"0.00016345000000","RCS_SIZE":"LARGE","MEAN_ANOMALY":"293.6584","PERIOD":"95.592","TLE_LINE2":"2 47394  53.0545   5.2334 0001615  66.4575 293.6584 15.06409986 54604","GP_ID":"193625856","SITE":"AFETR","OBJECT_ID":"2021-005AX","MEAN_MOTION_DOT":"0.00002154","INCLINATION":"53.0545","PERIAPSIS":"546.065"},{"NORAD_CAT_ID":"47395","MEAN_ELEMENT_THEORY":"SGP4","TIME_SYSTEM":"UTC","REV_AT_EPOCH":"5465","DECAY_DATE":null,"SEMIMAJOR_AXIS":"6925.325","ECCENTRICITY":"0.00015050","EPHEMERIS_TYPE":"0","EPOCH":"2022-01-10T16:35:12.255648","APOAPSIS":"548.233","COUNTRY_CODE":"US","ELEMENT_SET_NO":"999","LAUNCH_DATE":"2021-01-20","CLASSIFICATION_TYPE":"U","MEAN_MOTION":"15.06407553","CENTER_NAME":"EARTH","RA_OF_ASC_NODE":"0.6686","ARG_OF_PERICENTER":"62.6214","FILE":"3269118","MEAN_MOTION_DDOT":"0.0000000000000","OBJECT_TYPE":"PAYLOAD","REF_FRAME":"TEME","OBJECT_NAME":"STARLINK-2117","BSTAR":"0.00012555000000","TLE_LINE1":"1 47395U 21005AY  22010.69111407  .00001589  00000-0  12555-3 0  9994","RCS_SIZE":"LARGE","TLE_LINE2":"2 47395  53.0570   0.6686 0001505  62.6214 297.4928 15.06407553 54655","PERIOD":"95.592","MEAN_ANOMALY":"297.4928","SITE":"AFETR","GP_ID":"193626106","OBJECT_ID":"2021-005AY","MEAN_MOTION_DOT":"0.00001589","INCLINATION":"53.0570","PERIAPSIS":"546.148"},{"INCLINATION":"53.0563","MEAN_MOTION_DOT":"0.00006321","PERIAPSIS":"545.964","OBJECT_ID":"2021-005AZ","SITE":"AFETR","GP_ID":"193594452","MEAN_ANOMALY":"286.4999","TLE_LINE2":"2 47396  53.0563  11.9698 0001734  73.6181 286.4999 15.06415765 54475","PERIOD":"95.591","RCS_SIZE":"LARGE","OBJECT_NAME":"STARLINK-2118","BSTAR":"0.00044270000000","TLE_LINE1":"1 47396U 21005AZ  22010.40270358  .00006321  00000-0  44270-3 0  9993","OBJECT_TYPE":"PAYLOAD","REF_FRAME":"TEME","FILE":"3268856","MEAN_MOTION_DDOT":"0.0000000000000","ARG_OF_PERICENTER":"73.6181","CENTER_NAME":"EARTH","MEAN_MOTION":"15.06415765","RA_OF_ASC_NODE":"11.9698","CLASSIFICATION_TYPE":"U","ELEMENT_SET_NO":"999","APOAPSIS":"548.366","COUNTRY_CODE":"US","LAUNCH_DATE":"2021-01-20","EPOCH":"2022-01-10T09:39:53.589312","TIME_SYSTEM":"UTC","EPHEMERIS_TYPE":"0","DECAY_DATE":null,"SEMIMAJOR_AXIS":"6925.300","ECCENTRICITY":"0.00017340","REV_AT_EPOCH":"5447","NORAD_CAT_ID":"47396","MEAN_ELEMENT_THEORY":"SGP4"},{"NORAD_CAT_ID":"47397","MEAN_ELEMENT_THEORY":"SGP4","EPHEMERIS_TYPE":"0","DECAY_DATE":null,"ECCENTRICITY":"0.00016070","SEMIMAJOR_AXIS":"6925.323","REV_AT_EPOCH":"5411","TIME_SYSTEM":"UTC","EPOCH":"2022-01-10T19:09:08.078688","LAUNCH_DATE":"2021-01-20","ELEMENT_SET_NO":"999","COUNTRY_CODE":"US","APOAPSIS":"548.300","CLASSIFICATION_TYPE":"U","RA_OF_ASC_NODE":"40.1923","CENTER_NAME":"EARTH","MEAN_MOTION":"15.06408497","ARG_OF_PERICENTER":"64.4140","MEAN_MOTION_DDOT":"0.0000000000000","FILE":"3269118","REF_FRAME":"TEME","OBJECT_TYPE":"PAYLOAD","TLE_LINE1":"1 47397U 21005BA  22010.79801017  .00002919  00000-0  21475-3 0  9999","BSTAR":"0.00021475000000","OBJECT_NAME":"STARLINK-2119","RCS_SIZE":"LARGE","MEAN_ANOMALY":"295.7015","TLE_LINE2":"2 47397  53.0546  40.1923 0001607  64.4140 295.7015 15.06408497 54111","PERIOD":"95.592","GP_ID":"193625105","SITE":"AFETR","OBJECT_ID":"2021-005BA","PERIAPSIS":"546.075","MEAN_MOTION_DOT":"0.00002919","INCLINATION":"53.0546"},{"OBJECT_TYPE":"PAYLOAD","REF_FRAME":"TEME","FILE":"3269118","MEAN_MOTION_DDOT":"0.0000000000000","RCS_SIZE":"LARGE","OBJECT_NAME":"STARLINK-2120","TLE_LINE1":"1 47398U 21005BB  22010.70494169  .00000708  00000-0  66408-4 0  9997","BSTAR":"0.00006640800000","GP_ID":"193625357","SITE":"AFETR","MEAN_ANOMALY":"279.1510","PERIOD":"95.592","TLE_LINE2":"2 47398  53.0554  10.6002 0001475  80.9645 279.1510 15.06403002 54514","INCLINATION":"53.0554","MEAN_MOTION_DOT":"0.00000708","PERIAPSIS":"546.183","OBJECT_ID":"2021-005BB","TIME_SYSTEM":"UTC","EPHEMERIS_TYPE":"0","DECAY_DATE":null,"SEMIMAJOR_AXIS":"6925.339","ECCENTRICITY":"0.00014750","REV_AT_EPOCH":"5451","NORAD_CAT_ID":"47398","MEAN_ELEMENT_THEORY":"SGP4","ELEMENT_SET_NO":"999","APOAPSIS":"548.226","COUNTRY_CODE":"US","LAUNCH_DATE":"2021-01-20","EPOCH":"2022-01-10T16:55:06.962016","CLASSIFICATION_TYPE":"U","ARG_OF_PERICENTER":"80.9645","CENTER_NAME":"EARTH","MEAN_MOTION":"15.06403002","RA_OF_ASC_NODE":"10.6002"},{"OBJECT_ID":"2021-005BC","INCLINATION":"53.0570","MEAN_MOTION_DOT":"0.00000295","PERIAPSIS":"546.191","MEAN_ANOMALY":"293.3624","TLE_LINE2":"2 47399  53.0570  20.5482 0001457  66.7519 293.3624 15.06404263 54375","PERIOD":"95.592","SITE":"AFETR","GP_ID":"193625607","OBJECT_NAME":"STARLINK-2121","TLE_LINE1":"1 47399U 21005BC  22010.71782108  .00000295  00000-0  38670-4 0  9993","BSTAR":"0.00003867000000","RCS_SIZE":"LARGE","FILE":"3269118","MEAN_MOTION_DDOT":"0.0000000000000","OBJECT_TYPE":"PAYLOAD","REF_FRAME":"TEME","CENTER_NAME":"EARTH","MEAN_MOTION":"15.06404263","RA_OF_ASC_NODE":"20.5482","ARG_OF_PERICENTER":"66.7519","CLASSIFICATION_TYPE":"U","EPOCH":"2022-01-10T17:13:39.741312","ELEMENT_SET_NO":"999","APOAPSIS":"548.210","COUNTRY_CODE":"US","LAUNCH_DATE":"2021-01-20","NORAD_CAT_ID":"47399","MEAN_ELEMENT_THEORY":"SGP4","TIME_SYSTEM":"UTC","EPHEMERIS_TYPE":"0","REV_AT_EPOCH":"5437","DECAY_DATE":null,"SEMIMAJOR_AXIS":"6925.335","ECCENTRICITY":"0.00014570"},{"ARG_OF_PERICENTER":"64.4825","MEAN_MOTION":"15.06409331","CENTER_NAME":"EARTH","RA_OF_ASC_NODE":"0.6116","CLASSIFICATION_TYPE":"U","APOAPSIS":"548.301","COUNTRY_CODE":"US","ELEMENT_SET_NO":"999","LAUNCH_DATE":"2021-01-20","EPOCH":"2022-01-10T16:49:46.214976","TIME_SYSTEM":"UTC","DECAY_DATE":null,"ECCENTRICITY":"0.00016110","SEMIMAJOR_AXIS":"6925.320","REV_AT_EPOCH":"5465","EPHEMERIS_TYPE":"0","NORAD_CAT_ID":"47400","MEAN_ELEMENT_THEORY":"SGP4","INCLINATION":"53.0557","MEAN_MOTION_DOT":"0.00002096","PERIAPSIS":"546.069","OBJECT_ID":"2021-005BD","GP_ID":"193624856","SITE":"AFETR","PERIOD":"95.592","TLE_LINE2":"2 47400  53.0557   0.6116 0001611  64.4825 295.6331 15.06409331 54655","MEAN_ANOMALY":"295.6331","RCS_SIZE":"LARGE","OBJECT_NAME":"STARLINK-2122","TLE_LINE1":"1 47400U 21005BD  22010.70122934  .00002096  00000-0  15955-3 0  9991","BSTAR":"0.00015955000000","OBJECT_TYPE":"PAYLOAD","REF_FRAME":"TEME","FILE":"3269118","MEAN_MOTION_DDOT":"0.0000000000000"},{"APOAPSIS":"548.352","COUNTRY_CODE":"US","ELEMENT_SET_NO":"999","LAUNCH_DATE":"2021-01-20","EPOCH":"2022-01-10T17:16:20.746848","TIME_SYSTEM":"UTC","REV_AT_EPOCH":"5452","DECAY_DATE":null,"SEMIMAJOR_AXIS":"6925.330","ECCENTRICITY":"0.00016710","EPHEMERIS_TYPE":"0","NORAD_CAT_ID":"47401","MEAN_ELEMENT_THEORY":"SGP4","ARG_OF_PERICENTER":"63.8573","MEAN_MOTION":"15.06406135","CENTER_NAME":"EARTH","RA_OF_ASC_NODE":"10.5479","CLASSIFICATION_TYPE":"U","RCS_SIZE":"LARGE","OBJECT_NAME":"STARLINK-2123","BSTAR":"0.00007939800000","TLE_LINE1":"1 47401U 21005BE  22010.71968457  .00000901  00000-0  79398-4 0  9996","OBJECT_TYPE":"PAYLOAD","REF_FRAME":"TEME","FILE":"3269118","MEAN_MOTION_DDOT":"0.0000000000000","MEAN_MOTION_DOT":"0.00000901","INCLINATION":"53.0553","PERIAPSIS":"546.038","OBJECT_ID":"2021-005BE","GP_ID":"193624606","SITE":"AFETR","PERIOD":"95.592","TLE_LINE2":"2 47401  53.0553  10.5479 0001671  63.8573 296.2588 15.06406135 54529","MEAN_ANOMALY":"296.2588"}];
